NORAD_CAT_ID,OBJECT_NAME,OBJECT_TYPE,EPOCH,MEAN_MOTION,ECCENTRICITY,INCLINATION,RA_OF_ASC_NODE,ARG_OF_PERICENTER,MEAN_ANOMALY,BSTAR,MEAN_MOTION_DOT,MEAN_MOTION_DDOT,TLE_LINE0,TLE_LINE1,TLE_LINE2,SEMIMAJOR_AXIS,PERIOD,APOGEE,PERIGEE,DECAYED
51993.0,STARLINK-3648,PAYLOAD,2022-12-09 22:17:53,15.08825304,0.000129,53.2179,322.2172,317.0296,43.0595,-0.00095335,-0.00015422,0.0,0 STARLINK-3648,1 51993U 22025AP  22343.92909672 -.00015422  00000-0 -95335-3 0  9990,2 51993  53.2179 322.2172 0001290 317.0296  43.0595 15.08825304 43161,6917.925,95.438,540.683,538.898,0.0
51993.0,STARLINK-3648,PAYLOAD,2022-12-10 07:50:10,15.08839656,0.0002332,53.218,320.4318,32.3716,327.7419,-3.3511e-05,-8.22e-06,0.0,0 STARLINK-3648,1 51993U 22025AP  22344.32651281 -.00000822  00000-0 -33511-4 0  9992,2 51993  53.2180 320.4318 0002332  32.3716 327.7419 15.08839656 43226,6917.880999999999,95.438,541.36,538.133,0.0
51993.0,STARLINK-3648,PAYLOAD,2022-12-11 04:30:11,15.08839578,0.0002474,53.2184,316.5639,35.8484,324.2674,8.0191e-05,9.88e-06,0.0,0 STARLINK-3648,1 51993U 22025AP  22345.18763062  .00000988  00000-0  80191-4 0  9995,2 51993  53.2184 316.5639 0002474  35.8484 324.2674 15.08839578 42248,6917.882,95.438,541.4580000000002,538.035,0.0
51993.0,STARLINK-3648,PAYLOAD,2022-12-11 21:59:25,15.08832574,0.0001647,53.2185,313.2932,33.2061,326.9034,0.00025862,3.83e-05,0.0,0 STARLINK-3648,1 51993U 22025AP  22345.91626951  .00003830  00000-0  25862-3 0  9993,2 51993  53.2185 313.2932 0001647  33.2061 326.9034 15.08832574 42353,6917.903,95.438,540.9069999999998,538.629,0.0
51993.0,STARLINK-3648,PAYLOAD,2022-12-12 04:20:58,15.08832847,0.0002105,53.218,312.1027,37.9379,322.1761,0.00024791,3.659e-05,0.0,0 STARLINK-3648,1 51993U 22025AP  22346.18123249  .00003659  00000-0  24791-3 0  9994,2 51993  53.2180 312.1027 0002105  37.9379 322.1761 15.08832847 42396,6917.901999999999,95.438,541.2230000000002,538.311,0.0
51993.0,STARLINK-3648,PAYLOAD,2022-12-13 01:00:59,15.08841275,0.000222,53.219,308.2376,39.963,320.1526,-5.7611e-06,-3.8e-06,0.0,0 STARLINK-3648,1 51993U 22025AP  22347.04235464 -.00000380  00000-0 -57611-5 0  9992,2 51993  53.2190 308.2376 0002220  39.9630 320.1526 15.08841275 43630,6917.876,95.437,541.2769999999998,538.206,0.0
51993.0,STARLINK-3648,PAYLOAD,2022-12-13 07:22:32,15.08835275,0.0002324,53.2175,307.0492,28.3432,331.7686,-7.600800000000001e-05,-1.498e-05,0.0,0 STARLINK-3648,1 51993U 22025AP  22347.30732077 -.00001498  00000-0 -76008-4 0  9994,2 51993  53.2175 307.0492 0002324  28.3432 331.7686 15.08835275 43678,6917.895,95.438,541.368,538.1519999999998,0.0
51993.0,STARLINK-3648,PAYLOAD,2022-12-14 04:02:32,15.08838951,0.0002388,53.2176,303.1845,29.3496,330.7630000000001,-1.6603e-06,-3.15e-06,0.0,0 STARLINK-3648,1 51993U 22025AP  22348.16843463 -.00000315  00000-0 -16603-5 0  9994,2 51993  53.2176 303.1845 0002388  29.3496 330.7630 15.08838951 43806,6917.884,95.438,541.401,538.097,0.0
51993.0,STARLINK-3648,PAYLOAD,2022-12-14 07:13:18,15.08840273,0.0002361,53.2172,302.5898,31.8582,328.2553,1.672e-05,-2.2e-07,0.0,0 STARLINK-3648,1 51993U 22025AP  22348.30091320 -.00000022  00000-0  16720-4 0  9990,2 51993  53.2172 302.5898 0002361  31.8582 328.2553 15.08840273 42713,6917.88,95.438,541.378,538.111,0.0
51993.0,STARLINK-3648,PAYLOAD,2022-12-14 13:34:52,15.08832174,0.0002354,53.2168,301.3975,26.5253,333.5859,-1.4279000000000008e-05,-5.16e-06,0.0,0 STARLINK-3648,1 51993U 22025AP  22348.56587976 -.00000516  00000-0 -14279-4 0  9991,2 51993  53.2168 301.3975 0002354  26.5253 333.5859 15.08832174 43865,6917.904,95.438,541.398,538.141,0.0
51993.0,STARLINK-3648,PAYLOAD,2022-12-15 07:04:06,15.08832059,0.0002304,53.2178,298.1278,28.3271,331.7846,8.9749e-05,1.14e-05,0.0,0 STARLINK-3648,1 51993U 22025AP  22349.29451939  .00001140  00000-0  89749-4 0  9997,2 51993  53.2178 298.1278 0002304  28.3271 331.7846 15.08832059 42867,6917.905,95.438,541.364,538.1759999999998,0.0
51993.0,STARLINK-3648,PAYLOAD,2022-12-16 03:44:06,15.08842626,0.0002202,53.217,294.2624,34.0227,326.0906,8.547299999999999e-05,1.072e-05,0.0,0 STARLINK-3648,1 51993U 22025AP  22350.15563289  .00001072  00000-0  85473-4 0  9990,2 51993  53.2170 294.2624 0002202  34.0227 326.0906 15.08842626 44107,6917.871999999999,95.437,541.261,538.214,0.0
51993.0,STARLINK-3648,PAYLOAD,2022-12-16 13:16:25,15.0884425,0.0002341,53.2174,292.4778,33.1265,326.9874,8.0861e-05,9.99e-06,0.0,0 STARLINK-3648,1 51993U 22025AP  22350.55307108  .00000999  00000-0  80861-4 0  9993,2 51993  53.2174 292.4778 0002341  33.1265 326.9874 15.08844250 43058,6917.8669999999975,95.437,541.352,538.113,0.0
51993.0,STARLINK-3648,PAYLOAD,2022-12-16 21:13:22,15.08831383,0.0002206,53.2168,290.9913,32.787,327.3258,-2.194e-05,-6.37e-06,0.0,0 STARLINK-3648,1 51993U 22025AP  22350.88428247 -.00000637  00000-0 -21940-4 0  9991,2 51993  53.2168 290.9913 0002206  32.7870 327.3258 15.08831383 43102,6917.906999999997,95.438,541.298,538.246,0.0
51993.0,STARLINK-3648,PAYLOAD,2022-12-17 01:59:31,15.08836124,0.000226,53.2184,290.0998,38.7427,321.3727,6.6414e-06,-1.83e-06,0.0,0 STARLINK-3648,1 51993U 22025AP  22351.08300020 -.00000183  00000-0  66414-5 0  9993,2 51993  53.2184 290.0998 0002260  38.7427 321.3727 15.08836124 44247,6917.892,95.438,541.321,538.194,0.0
51993.0,STARLINK-3648,PAYLOAD,2022-12-17 06:45:41,15.08829313,0.0002392,53.2172,289.2083,34.2952,325.8194,-2.4381e-05,-6.76e-06,0.0,0 STARLINK-3648,1 51993U 22025AP  22351.28172661 -.00000676  00000-0 -24381-4 0  9997,2 51993  53.2172 289.2083 0002392  34.2952 325.8194 15.08829313 43168,6917.913000000001,95.438,541.433,538.123,0.0
51993.0,STARLINK-3648,PAYLOAD,2022-12-17 13:07:13,15.08829988,0.0002227,53.218,288.0182,33.7355,326.3778,2.3843e-05,9.1e-07,0.0,0 STARLINK-3648,1 51993U 22025AP  22351.54668552  .00000091  00000-0  23843-4 0  9996,2 51993  53.2180 288.0182 0002227  33.7355 326.3778 15.08829988 43209,6917.911,95.438,541.317,538.235,0.0
51993.0,STARLINK-3648,PAYLOAD,2022-12-18 01:50:18,15.08834102,0.0002175,53.2172,285.6392,36.6965,323.4176,-1.0199e-05,-4.51e-06,0.0,0 STARLINK-3648,1 51993U 22025AP  22352.07660497 -.00000451  00000-0 -10199-4 0  9997,2 51993  53.2172 285.6392 0002175  36.6965 323.4176 15.08834102 44392,6917.898,95.438,541.268,538.259,0.0
51993.0,STARLINK-3648,PAYLOAD,2022-12-18 12:58:00,15.08836788,0.0002264,53.2175,283.5572,33.049,327.0643,-4.3047e-05,-9.73e-06,0.0,0 STARLINK-3648,1 51993U 22025AP  22352.54028586 -.00000973  00000-0 -43047-4 0  9993,2 51993  53.2175 283.5572 0002264  33.0490 327.0643 15.08836788 43351,6917.89,95.438,541.321,538.189,0.0
51993.0,STARLINK-3648,PAYLOAD,2022-12-19 01:41:06,15.08828766,0.0002233,53.2173,281.1789,33.9347,326.1788,5.0466e-05,5.15e-06,0.0,0 STARLINK-3648,1 51993U 22025AP  22353.07021128  .00000515  00000-0  50466-4 0  9990,2 51993  53.2173 281.1789 0002233  33.9347 326.1788 15.08828766 43435,6917.915,95.438,541.3240000000002,538.235,0.0
51993.0,STARLINK-3648,PAYLOAD,2022-12-20 01:31:50,15.08859576,0.0002314,53.2174,276.7186,34.1013,326.0128,0.00024663,3.641e-05,0.0,0 STARLINK-3648,1 51993U 22025AP  22354.06378466  .00003641  00000-0  24663-3 0  9992,2 51993  53.2174 276.7186 0002314  34.1013 326.0128 15.08859576 44699,6917.821,95.436,541.286,538.085,0.0
51993.0,STARLINK-3648,PAYLOAD,2022-12-20 04:42:37,15.08856299,0.0002306,53.2174,276.1238,34.6871,325.4271,0.00028607,4.2700000000000015e-05,0.0,0 STARLINK-3648,1 51993U 22025AP  22354.19626616  .00004270  00000-0  28607-3 0  9990,2 51993  53.2174 276.1238 0002306  34.6871 325.4271 15.08856299 43600,6917.831,95.437,541.2909999999998,538.1,0.0
51993.0,STARLINK-3648,PAYLOAD,2022-12-20 23:47:17,15.0881686,0.0002267,53.2172,272.5557,43.7666,316.3506,-6.6711e-05,-1.349e-05,0.0,0 STARLINK-3648,1 51993U 22025AP  22354.99117687 -.00001349  00000-0 -66711-4 0  9996,2 51993  53.2172 272.5557 0002267  43.7666 316.3506 15.08816860 44837,6917.951,95.439,541.384,538.248,0.0
51993.0,STARLINK-3648,PAYLOAD,2022-12-21 04:33:26,15.08828145,0.0002347,53.2167,271.663,32.9907,327.1231,-5.1051e-05,-1.1e-05,0.0,0 STARLINK-3648,1 51993U 22025AP  22355.18989188 -.00001100  00000-0 -51051-4 0  9997,2 51993  53.2167 271.6630 0002347  32.9907 327.1231 15.08828145 44867,6917.917,95.438,541.405,538.158,0.0
51993.0,STARLINK-3648,PAYLOAD,2022-12-22 02:48:50,15.08832553,0.0002461,53.216,267.499,34.8993,325.216,-0.00014331,-2.568e-05,0.0,0 STARLINK-3648,1 51993U 22025AP  22356.11724630 -.00002568  00000-0 -14331-3 0  9998,2 51993  53.2160 267.4990 0002461  34.8993 325.2160 15.08832553 45000,6917.903,95.438,541.471,538.066,0.0
51993.0,STARLINK-3648,PAYLOAD,2022-12-22 10:45:45,15.08839264,0.0002454,53.2162,266.0132,36.8684,323.2476,-2.1024e-05,-6.23e-06,0.0,0 STARLINK-3648,1 51993U 22025AP  22356.44844408 -.00000623  00000-0 -21024-4 0  9998,2 51993  53.2162 266.0132 0002454  36.8684 323.2476 15.08839264 43941,6917.8830000000025,95.438,541.445,538.05,0.0
51993.0,STARLINK-3648,PAYLOAD,2022-12-22 18:42:41,15.08831153,0.0002402,53.2157,264.527,39.1972,320.9194,0.00018387,2.639e-05,0.0,0 STARLINK-3648,1 51993U 22025AP  22356.77965068  .00002639  00000-0  18387-3 0  9994,2 51993  53.2157 264.5270 0002402  39.1972 320.9194 15.08831153 43995,6917.906999999997,95.438,541.434,538.111,0.0
51993.0,STARLINK-3648,PAYLOAD,2022-12-23 04:15:00,15.08835852,0.0002406,53.2161,262.7426,35.6387,324.4765,0.00030296,4.536e-05,0.0,0 STARLINK-3648,1 51993U 22025AP  22357.17709389  .00004536  00000-0  30296-3 0  9992,2 51993  53.2161 262.7426 0002406  35.6387 324.4765 15.08835852 45162,6917.893,95.438,541.423,538.094,0.0
51993.0,STARLINK-3648,PAYLOAD,2022-12-23 10:36:33,15.08836592,0.0002397,53.2161,261.5531,35.5777,324.5375,0.00027813,4.141e-05,0.0,0 STARLINK-3648,1 51993U 22025AP  22357.44205521  .00004141  00000-0  27813-3 0  9994,2 51993  53.2161 261.5531 0002397  35.5777 324.5375 15.08836592 44098,6917.891,95.438,541.414,538.0980000000002,0.0
